STARLINK-2477
1 18322C 21036AY  21326.17852109  .00004883  00000-0  32717-3 0  3268
2 18322  53.0541 302.9264 0001888  61.6042 161.8358 15.06392626    12
